[{"OBJECT_NAME":"CONTINUUM-1","OBJECT_ID":"2023-001AN","EPOCH":"2026-03-09T23:17:35.458656","MEAN_MOTION":15.27981258,"ECCENTRICITY":0.00109493,"INCLINATION":97.3456,"RA_OF_ASC_NODE":133.3964,"ARG_OF_PERICENTER":60.1976,"MEAN_ANOMALY":300.0351,"EPHEMERIS_TYPE":0,"CLASSIFICATION_TYPE":"U","NORAD_CAT_ID":55045,"ELEMENT_SET_NO":999,"REV_AT_EPOCH":17709,"BSTAR":0.00052859897,"MEAN_MOTION_DOT":0.00014395,"MEAN_MOTION_DDOT":0},{"OBJECT_NAME":"STARLINK-33678","OBJECT_ID":"2025-071S","EPOCH":"2026-03-09T12:32:56.984928","MEAN_MOTION":15.30192299,"ECCENTRICITY":0.00010644,"INCLINATION":53.16,"RA_OF_ASC_NODE":140.7135,"ARG_OF_PERICENTER":61.6042,"MEAN_ANOMALY":298.5066,"EPHEMERIS_TYPE":0,"CLASSIFICATION_TYPE":"U","NORAD_CAT_ID":63509,"ELEMENT_SET_NO":999,"REV_AT_EPOCH":5247,"BSTAR":0.00076480454,"MEAN_MOTION_DOT":0.00022355,"MEAN_MOTION_DDOT":0}]
